Name,Street,City,State,Zip,info
100 CENTRE PLAZA,100 CENTRE PLAZA,Brookline,MA,02446,"CEDAC data, cedac.org"
113 SPENCER,113 Spencer Ave,Chelsea,MA,02150,"CEDAC data, cedac.org"
116 COTTAGE STREET,116 COTTAGE STREET,Lynn,MA,01905,"CEDAC data, cedac.org"
131-133 SARGEANT STREET,131 SARGEANT ST,Holyoke,MA,01040,"CEDAC data, cedac.org"
1318 COMMONWEALTH AVE,1318 COMMONWEALTH AV,Boston - Allston,MA,02134,"CEDAC data, cedac.org"
144 CHOATE STREET,144 CHOATE STREET,Fall River,MA,02723,"CEDAC data, cedac.org"
144 WORCESTER ST,144 WORCESTER ST,Boston - South End,MA,02118,"CEDAC data, cedac.org"
1550 BEACON PLAZA,1550 BEACON STREET,Brookline,MA,02446,"CEDAC data, cedac.org"
159 BEACON HILL,159 BEACON HILL AVE,Lynn,MA,01902,"CEDAC data, cedac.org"
198-208 CANAL STREET,198 CANAL STREET,Fall River,MA,02721,"CEDAC data, cedac.org"
449 SARATOGA STREET,449 SARATOGA STREET,Boston - East Boston,MA,02128,"CEDAC data, cedac.org"
556-562 CHESTNUT STREET,557 CHESTNUT ST,Lynn,MA,01904,"CEDAC data, cedac.org"
706 HUNTINGTON AVE,706 HUNTINGTON AVE,Boston - Mission Hill,MA,02115,"CEDAC data, cedac.org"
808 MEMORIAL DRIVE,808 MEMORIAL DRIVE,Cambridge,MA,02139,"CEDAC data, cedac.org"
91 MINDEN STREET,91 MINDEN STREET,Boston - Jamaica Plain,MA,02130,"CEDAC data, cedac.org"
929 HOUSE,929 MASS AVE,Cambridge,MA,02139,"CEDAC data, cedac.org"
ACADEMY HILL SCHOOL,4 WESTMINSTER ST,Nantucket,MA,02554,"CEDAC data, cedac.org"
AEI GROUP HOMES-BRAINTREE,35 ANGELA ROAD,Braintree,MA,02184,"CEDAC data, cedac.org"
AEI GROUP HOMES-CENTERVIL,8 DONEGAL CIRCLE,Barnstable,MA,02632,"CEDAC data, cedac.org"
AEI GROUP HOMES-KINGSTON,159 INDIAN POND ROAD,Kingston,MA,02364,"CEDAC data, cedac.org"
AEI GROUP HOMES-MARSHFIEL,455 HOLLY ROAD,Marshfield,MA,02050,"CEDAC data, cedac.org"
ALLERTON HOUSE,43 SCHOOL HOUSE ROAD,Weymouth,MA,02188,"CEDAC data, cedac.org"
AMES PRIVILEGE,1 SPRINGFIELD ST,Chicopee,MA,01013,"CEDAC data, cedac.org"
AMORY STREET RESIDENCES,20 AMORY AVE,Boston - Roxbury,MA,02119,"CEDAC data, cedac.org"
AMY LOWELL HOUSE,65 MARTHA ROAD APT.,Boston - West End,MA,02114,"CEDAC data, cedac.org"
ANCHOR'S WEIGH,300 COMMANDANTS WAY,Chelsea,MA,02150,"CEDAC data, cedac.org"
ANCHORAGE APTS,103 9TH ST,Boston - Charlestown,MA,02129,"CEDAC data, cedac.org"
ARBORPOINT @ WOODLAND STA,1940 WASHINGTON STREET,Newton,MA,02466,"CEDAC data, cedac.org"
ARC FLINTLOCK LANE,3 Flintlock Lane,Lakeville,MA,02347,"CEDAC data, cedac.org"
ARC HIXVILLE ROAD,1199 Hixville Road,Dartmouth,MA,02747,"CEDAC data, cedac.org"
ARC LONG POINT ROAD,11 Long Point Road,Lakeville,MA,02347,"CEDAC data, cedac.org"
ARC PEIRCE LANE,2 Pierce Lane,Middleborough,MA,02346,"CEDAC data, cedac.org"
ARC WINFIELD STREET,38 Winfield Street,Freetown,MA,02717,"CEDAC data, cedac.org"
ASHER'S PATH,1 Carleton Drive,Mashpee,MA,02649,"CEDAC data, cedac.org"
ASHMONT TOD,1900 Dorchester Avenue,Boston - Dorchester,MA,02124,"CEDAC data, cedac.org"
AUBURN COURT,80 AUBURN PARK,Cambridge,MA,02139,"CEDAC data, cedac.org"
AURORA HOTEL,660 MAIN ST,Worcester,MA,01610,"CEDAC data, cedac.org"
AVALON AT BEDFORD CENTER,1 DAVIS ROAD,Bedford,MA,01730,"CEDAC data, cedac.org"
AVALON AT CHESTNUT HILL,160 BOYLSTON STREET,Newton,MA,02467,"CEDAC data, cedac.org"
AVALON AT CRANE BROOK,1 CRANE BROOK WAY,Peabody,MA,01960,"CEDAC data, cedac.org"
AVALON AT FLANDERS HILL,1 HOMESTEAD BLVD,Westborough,MA,01581,"CEDAC data, cedac.org"
AVALON AT LEXINGTON,100 LEXINGTON RDG DR,Lexington,MA,02421,"CEDAC data, cedac.org"
AVALON AT NEWTON HIGHLAND,89-99 NEEDHAM STREET,Newton,MA,02461,"CEDAC data, cedac.org"
AVALON BLUE HILLS,340 Canton Street,Randolph,MA,02368,"CEDAC data, cedac.org"
AVALON LEDGES,1 AVALON DRIVE,Weymouth,MA,02188,"CEDAC data, cedac.org"
AVALON OAKS,1 AVALON DRIVE,Wilmington,MA,01887,"CEDAC data, cedac.org"
AVALON OAKS WEST,1 EVERGREEN DRIVE,Wilmington,MA,01887,"CEDAC data, cedac.org"
AVALON ORCHARDS,81 BOSTON POST RD (RT 20),Marlborough,MA,01752,"CEDAC data, cedac.org"
BABCOCK TOWER,270 BABCOCK STREET,Boston - Kenmore,MA,02215,"CEDAC data, cedac.org"
BARNES SCHOOL ELDERLY,127 MARION ST,Boston - East Boston,MA,02128,"CEDAC data, cedac.org"
BEACON PARK,1371 BEACON STREET,Brookline,MA,02446,"CEDAC data, cedac.org"
BEDFORD VILLAGE,12 DUNSTER ROAD,Bedford,MA,01730,"CEDAC data, cedac.org"
BERKELEY PLACE,41 BERKELEY ST,Lawrence,MA,01841,"CEDAC data, cedac.org"
BERTRAM HOUSE OF SWAMPSCT,565 HUMPHREY ST.,Swampscott,MA,01907,"CEDAC data, cedac.org"
BHP BRUNSWICK HOLBORN,1 INTERVALE STREET,Boston - N Dorchester,MA,02121,"CEDAC data, cedac.org"
BHP CODMAN SQUARE,225 NORFOLK ST.,Boston - Dorchester,MA,02124,"CEDAC data, cedac.org"
BHP COLUMBIA WOOD,200-204 COLUMBIA RD,Boston - N Dorchester,MA,02121,"CEDAC data, cedac.org"
BHP DIXWELL III/INFILL,1989 COLUMBUS AVE.,Boston - Roxbury,MA,02119,"CEDAC data, cedac.org"
BHP FIELDS CORNER,1 ARCADIA ST,Boston - Dorchester,MA,02122,"CEDAC data, cedac.org"
BHP FRAWLEY-DELLE,7 FRAWLEY ST,Boston - Mission Hill,MA,02115,"CEDAC data, cedac.org"
BHP HANO STREET,1 HANO STREET,Boston - Allston,MA,02134,"CEDAC data, cedac.org"
BHP LENA PARK,1310 BLUE HILL AVE.,Boston - Mattapan,MA,02126,"CEDAC data, cedac.org"
BHP WASHINGTON PARK,392A WARREN ST,Boston - Roxbury,MA,02119,"CEDAC data, cedac.org"
BHP WESTLAND AVE,71 WESTLAND AVE,Boston - Fenway,MA,02115,"CEDAC data, cedac.org"
BLOSSOM COURT APTS.,37 BLOSSOM ST,Fitchburg,MA,01420,"CEDAC data, cedac.org"
BLUE HILLS VILLAGE,735 RANDOLPH ST,Canton,MA,02021,"CEDAC data, cedac.org"
BOOTT MILLS APARTMENTS,100 FOOT OF JOHN STREET,Lowell,MA,01852,"CEDAC data, cedac.org"
BRAINTREE VILLAGE,2 MCCUSKER DRIVE (OFFICE),Braintree,MA,02184,"CEDAC data, cedac.org"
BRAYTON HILL,85 BARBOUR ST,North Adams,MA,01247,"CEDAC data, cedac.org"
BRIARCLIFF CONDO,15 FLORENCE STREET,Franklin,MA,02038,"CEDAC data, cedac.org"
BRIGHTON GARDENS,101 TREMONT ST,Boston - Brighton,MA,02135,"CEDAC data, cedac.org"
BROADWAY TOWER,250 BROADWAY,Revere,MA,02151,"CEDAC data, cedac.org"
BROOKS SCHOOL,5 PERTH STREET,Boston - Dorchester,MA,02121,"CEDAC data, cedac.org"
BROOKSIDE ESTATES,105 BROOKSIDE DR,Andover,MA,01810,"CEDAC data, cedac.org"
BROOKSIDE TERRACE,11 VILLAGE DRIVE,Southbridge,MA,01550,"CEDAC data, cedac.org"
BROWN SCHOOL RESIDENCES,200 LYNN STREET,Peabody,MA,01960,"CEDAC data, cedac.org"
BROWN-KAPLAN TOWNHOMES,11 LORNE STREET,Boston - Dorchester,MA,02124,"CEDAC data, cedac.org"
BROWNSTONE GARDENS,75 PLEASANT ST,East Longmeadow,MA,01028,"CEDAC data, cedac.org"
BURBANK GARDENS,31 BURBANK ST,Boston - Fenway,MA,02115,"CEDAC data, cedac.org"
CABLE GARDENS,100 COUNTY ROAD,Ipswich,MA,01938,"CEDAC data, cedac.org"
CABOT PARK VILLAGE,22 MUNROE ST,Newton,MA,02460,"CEDAC data, cedac.org"
CAMBRIDGE COURT,411 FRANKLIN ST,Cambridge,MA,02139,"CEDAC data, cedac.org"
CANALSIDE,7 SCOTCH PINE ROAD,Bourne,MA,02532,"CEDAC data, cedac.org"
CARTER HEIGHTS,10 FORSYTH STREET,Chelsea,MA,02150,"CEDAC data, cedac.org"
CASS HOUSE,251-263 HAROLD ST,Boston - Dorchester,MA,02121,"CEDAC data, cedac.org"
CEDAR MEADOWS,784 TEATICKET HIGHWAY,Falmouth,MA,02536,"CEDAC data, cedac.org"
"CEDARS, THE",626 OLD WESTPORT RD,Dartmouth,MA,02747,"CEDAC data, cedac.org"
CENTERVILLE WOODS,393 ESSEX ST,Beverly,MA,01915,"CEDAC data, cedac.org"
CENTRAL GRAMMAR,10 DALE AVENUE,Gloucester,MA,01930,"CEDAC data, cedac.org"
CHANNING TERRACE,26 CHANNING ST,Worcester,MA,01605,"CEDAC data, cedac.org"
CHAPMAN ARMS,4 UNIVERSITY ROAD,Cambridge,MA,02138,"CEDAC data, cedac.org"
CHAPMAN HOUSE,61 EUTAW STREET,Boston - East Boston,MA,02128,"CEDAC data, cedac.org"
CHARLYSADE APTS,14 HANCOCK STREET,Boston - Beacon Hill,MA,02114,"CEDAC data, cedac.org"
CHATHAM WEST I,202 CHATHAM WEST DR,Brockton,MA,02301,"CEDAC data, cedac.org"
CHESTNUT PARK,10 CHESTNUT ST,Springfield,MA,01103,"CEDAC data, cedac.org"
CHESTNUT PARK @ CLEVE CIR,50 SUTHERLAND RD.,Boston - Brighton,MA,02135,"CEDAC data, cedac.org"
CHRISTIAN HILL,27 CHRISTIAN HILL RD,Great Barrington,MA,01230,"CEDAC data, cedac.org"
CHRISTOPHER COLUMBUS PLZ,145 COMMERCIAL ST,Boston - North End,MA,02109,"CEDAC data, cedac.org"
CHRISTOPHER HTS - WEBSTER,338 THOMPSON ROAD,Webster,MA,01570,"CEDAC data, cedac.org"
CHRISTOPHER HTS WORCESTER,20 MARY SCANO DRIVE,Worcester,MA,01605,"CEDAC data, cedac.org"
CLEAVES COURT APTS,5 CLEAVES ST,Boston - Roxbury,MA,02119,"CEDAC data, cedac.org"
COBBET HILL,498 ESSEX ST APT 125,Lynn,MA,01902,"CEDAC data, cedac.org"
COE'S POND VILLAGE,39 1ST ST,Worcester,MA,01602,"CEDAC data, cedac.org"
COHEN FLORENCE LEVINE EST,201 CAPTAINS ROW,Chelsea,MA,02150,"CEDAC data, cedac.org"
COL LOVELL'S GATE,148 COLONELS LN,Weymouth,MA,02189,"CEDAC data, cedac.org"
COLONIAL APTS,19 CITY HALL AVE,Gardner,MA,01440,"CEDAC data, cedac.org"
COLONIAL VILLAGE,107 BROAD ST,Weymouth,MA,02188,"CEDAC data, cedac.org"
COLUMBIA WEST APARTMENTS,392 COLUMBIA RD,Boston - Dorchester,MA,02125,"CEDAC data, cedac.org"
CONANT VILLAGE,240 CONANT STREET,Danvers,MA,01923,"CEDAC data, cedac.org"
CONCORD HOUSES,705 TREMONT ST,Boston - South End,MA,02118,"CEDAC data, cedac.org"
CONWAY COURT,1 CONWAY STREET,Boston - Roslindale,MA,02131,"CEDAC data, cedac.org"
"COOLIDGE, THE",319 Arlington Street,Watertown,MA,02472,"CEDAC data, cedac.org"
COPLEY GARDENS,105 MARKET ST,Rockland,MA,02370,"CEDAC data, cedac.org"
CORDOVAN @ HAVERHILL STA,16 WALNUT STREET,Haverhill,MA,01830,"CEDAC data, cedac.org"
CRAIGVILLE COURT,558 CRAIGVILLE BEACH RD,Barnstable,MA,02632,"CEDAC data, cedac.org"
CRANBERRY MANOR,2220 CRANBERRY HGHWY,Wareham,MA,02576,"CEDAC data, cedac.org"
CRAWFORD HOUSE,34 CRAWFORD ST,Boston - Dorchester,MA,02121,"CEDAC data, cedac.org"
DAVENPORT COMMONS,700 COLUMBUS,Boston - Lower Roxbury,MA,02120,"CEDAC data, cedac.org"
DOUGLASS PARK,650 COLUMBUS AVENUE,Boston - Lower Roxbury,MA,02118,"CEDAC data, cedac.org"
EAST BOSTON REHAB,350 MERIDIAN STREET,Boston - East Boston,MA,02128,"CEDAC data, cedac.org"
EASTBROOK APTS,259 FERNBANK RD,Springfield,MA,01129,"CEDAC data, cedac.org"
ELMWOOD TOWERS,465 SOUTH ST,Holyoke,MA,01040,"CEDAC data, cedac.org"
EVANS PARK,430 CENTRE ST.,Newton,MA,02458,"CEDAC data, cedac.org"
EVERETT SQ PLAZA,142 SCHOOL STREET,Everett,MA,02149,"CEDAC data, cedac.org"
FORBES BLDG,545 CENTRE STREET,Boston - Jamaica Plain,MA,02130,"CEDAC data, cedac.org"
FOUNDERS COURT APTS.,979 FALMOUTH RD.,Barnstable,MA,02601,"CEDAC data, cedac.org"
FRANKLIN HILL PHASE 1B,1 Shandon Road,Boston - Dorchester,MA,02124,"CEDAC data, cedac.org"
FRANKLIN HILL PHASE 2A,1 SHANDON ROAD,Boston - Dorchester,MA,02124,"CEDAC data, cedac.org"
FRANKLIN HILL PHASE 2B,1 SHANDON ROAD,Boston - Dorchester,MA,02124,"CEDAC data, cedac.org"
FRANKLIN SCHOOL,7 STEDMAN ROAD,Lexington,MA,02421,"CEDAC data, cedac.org"
FULTON ST APTS,158 FULTON ST,Fall River,MA,02720,"CEDAC data, cedac.org"
GARDNER APTS,270 ROXBURY,Boston - Roxbury,MA,02119,"CEDAC data, cedac.org"
GLEN MEADOW,43 GLEN MEADOW RD,Franklin,MA,02038,"CEDAC data, cedac.org"
GLENDALE COURT,740 BROADWAY,Everett,MA,02149,"CEDAC data, cedac.org"
GREENFIELD ACRES,10 CONGRESS ST,Greenfield,MA,01301,"CEDAC data, cedac.org"
HADLEY APARTMENTS,653 MAIN STREET,Worcester,MA,01610,"CEDAC data, cedac.org"
HALEY HOUSE,23 DARTMOUTH ST,Boston - South End,MA,02116,"CEDAC data, cedac.org"
HAMLET STREET,37 HAMLET STREET,Newton,MA,02459,"CEDAC data, cedac.org"
HAMMOND STREET,90 HAMMOND ST,Boston - Roxbury,MA,02120,"CEDAC data, cedac.org"
HAMPSHIRE PINE,100 HAMPSHIRE ST.,Holyoke,MA,01040,"CEDAC data, cedac.org"
HAMPTON COURT,125 PLEASANT ST,Northampton,MA,01060,"CEDAC data, cedac.org"
HANOVER WOODS,65 FRANKS LANE,Hanover,MA,02339,"CEDAC data, cedac.org"
HARTWELL TERRACE,4 HARTWELL ST,Boston - Dorchester,MA,02121,"CEDAC data, cedac.org"
HASTINGS VILLAGE,54 HASTINGS STREET,Wellesley,MA,02481,"CEDAC data, cedac.org"
HATHAWAY FARMS,73 BARRETT ST,Northampton,MA,01060,"CEDAC data, cedac.org"
HAYNES HOUSE,735 SHAWMUT AVE,Boston - Roxbury,MA,02119,"CEDAC data, cedac.org"
HAYWARD LANDING,28 NORTH STREET,Douglas,MA,01516,"CEDAC data, cedac.org"
HEBRONVILLE MILL,967 READ ST,Attleboro,MA,02703,"CEDAC data, cedac.org"
HERITAGE @ BEDFORD SPRING,48 MIDDLESEX TPKE,Bedford,MA,01730,"CEDAC data, cedac.org"
HERITAGE @ DANVERS,9 SUMMER STREET,Danvers,MA,01923,"CEDAC data, cedac.org"
HERITAGE COMMON,45 CAMELLA TEOLI WAY,Lawrence,MA,01841,"CEDAC data, cedac.org"
HEYWOOD WAKEFIELD VILLAGE,194 CENTRAL STREET,Gardner,MA,01440,"CEDAC data, cedac.org"
HIGH ROCK HOMES,1 Linden Street,Needham,MA,02492,"CEDAC data, cedac.org"
HIGHLAND APTS,1800 HIGHLAND AVE,Fall River,MA,02720,"CEDAC data, cedac.org"
HIGHLAND VILLAGE,27 BOULDER DRIVE,Ware,MA,01082,"CEDAC data, cedac.org"
HILLCREST VILLAGE,1101 HILLSIDE AVENUE,Attleboro,MA,02703,"CEDAC data, cedac.org"
HILLSIDE VILLAGE,1 NORTH STREET,Ware,MA,01082,"CEDAC data, cedac.org"
HOLYOKE FARMS,61 FARNUM DR,Holyoke,MA,01040,"CEDAC data, cedac.org"
HOLYOKE HILL,360 1/2 TOKENEKE RD,Holyoke,MA,01040,"CEDAC data, cedac.org"
HOLYOKE TOWERS,59 PLEASANT ST,Holyoke,MA,01040,"CEDAC data, cedac.org"
HOPE-IN-ACTION,18 DAISY STREET,Lawrence,MA,01841,"CEDAC data, cedac.org"
HUNTER PLACE,69 ANDREW ST,Springfield,MA,01109,"CEDAC data, cedac.org"
INDEPENDENCE MANOR,41 INDEPENDENCE AVE,Braintree,MA,02184,"CEDAC data, cedac.org"
INDIAN MOTOCYCLE,837 STATE ST,Springfield,MA,01109,"CEDAC data, cedac.org"
INFILL,74 INTERVALE ST,Boston - Dorchester,MA,02121,"CEDAC data, cedac.org"
INFILL I,99 BRUNSWICK ST,Boston - Dorchester,MA,02121,"CEDAC data, cedac.org"
INMAN SQUARE APTS,1221 CAMBRIDGE ST,Cambridge,MA,02139,"CEDAC data, cedac.org"
INTERFAITH HSG,42 GARFIELD STREET,Lexington,MA,02421,"CEDAC data, cedac.org"
ISLAND CREEK WEST - II,30 TREMONT ST,Duxbury,MA,02332,"CEDAC data, cedac.org"
"JACKSON STREET, 27",27 Jackson Street,Lowell,MA,01852,"CEDAC data, cedac.org"
JACLEN TOWER,221 RANTOUL ST,Beverly,MA,01915,"CEDAC data, cedac.org"
JARVIS HEIGHTS,6 GERARD WAY,Holyoke,MA,01040,"CEDAC data, cedac.org"
JAYCEE PLACE,22 BOWERS STREET,Lowell,MA,01854,"CEDAC data, cedac.org"
JOHN F KENNEDY APTS,55 ESSEX STREET,Cambridge,MA,02139,"CEDAC data, cedac.org"
KENDRIGAN PLACE,10 WINTER STREET,Quincy,MA,02169,"CEDAC data, cedac.org"
KENSINGTON CT @ LAKEVILLE,1 Commercial Drive,Lakeville,MA,02347,"CEDAC data, cedac.org"
KIMBALL COURT APTS,7 KIMBALL COURT,Woburn,MA,01801,"CEDAC data, cedac.org"
KIMBALL COURT APTS II,7 KIMBALL COURT,Woburn,MA,01801,"CEDAC data, cedac.org"
KIMBALL COURT III,7 KIMBALL COURT,Woburn,MA,01801,"CEDAC data, cedac.org"
KING'S LANDING,1200 STATE ST,Brewster,MA,02631,"CEDAC data, cedac.org"
KING'S LYNNE,115 OCALLAGHAN WAY,Lynn,MA,01905,"CEDAC data, cedac.org"
LACASSE APTS,12 SARGEANT ST,Holyoke,MA,01040,"CEDAC data, cedac.org"
LANDFALL APTS,72 MARGINAL STREET,Boston - East Boston,MA,02128,"CEDAC data, cedac.org"
LANDFALL WEST,401 BORDER STREET,Boston - East Boston,MA,02128,"CEDAC data, cedac.org"
LANDMARK AT FALL RIVER,400 COLUMBIA STREET,Fall River,MA,02721,"CEDAC data, cedac.org"
LANGHAM COURT,26 WORCESTER ST,Boston - South End,MA,02118,"CEDAC data, cedac.org"
LATIN ACADEMY,702 WASHINGTON ST,Boston - Dorchester,MA,02124,"CEDAC data, cedac.org"
LAWRENCEVILLE,270 ROXBURY STREET,Boston - Roxbury,MA,02119,"CEDAC data, cedac.org"
LEBANON HILL,39 THERESE AVE,Southbridge,MA,01550,"CEDAC data, cedac.org"
LEEDS VILLAGE APTS,260 N MAIN ST,Northampton,MA,01062,"CEDAC data, cedac.org"
LINCOLN VILLAGE,37 PLEASANT VALLEY DR,Worcester,MA,01605,"CEDAC data, cedac.org"
LINCOLN WOODS,50 WELLS ROAD,Lincoln,MA,01773,"CEDAC data, cedac.org"
LINWOOD COURT,1 LINWOOD PLACE,Cambridge,MA,02139,"CEDAC data, cedac.org"
LITHGOW PROJECT,14 LITHGOW ST,Boston - Dorchester,MA,02124,"CEDAC data, cedac.org"
LITTLEBROOK,100 TOWER ST,Hudson,MA,01749,"CEDAC data, cedac.org"
LONGWOOD PLACE @ READING,75 PEARL ST.,Reading,MA,01867,"CEDAC data, cedac.org"
LORD MANOR,321 PAWTUCKET ST,Lowell,MA,01854,"CEDAC data, cedac.org"
LORING TOWERS,1000 LORING AVE,Salem,MA,01970,"CEDAC data, cedac.org"
LOUIS BARETT RESID,147 WASHINGTON ST,Lynn,MA,01902,"CEDAC data, cedac.org"
LUCERNE GARDENS,65 WINSTON RD,Boston - Dorchester,MA,02124,"CEDAC data, cedac.org"
MADISON PARK III,122 DEWITT DRIVE,Boston - Roxbury,MA,02120,"CEDAC data, cedac.org"
MALDEN GARDENS,510 MAIN ST,Malden,MA,02148,"CEDAC data, cedac.org"
MANSFIELD MEADOWS,12 BONNEY LANE,Mansfield,MA,02048,"CEDAC data, cedac.org"
MAPLEWOOD PLACE,295 BROADWAY,Malden,MA,02148,"CEDAC data, cedac.org"
MARINER'S HILL,2093 OCEAN ST,Marshfield,MA,02050,"CEDAC data, cedac.org"
MARLAND PLACE,15 STEVENS ST,Andover,MA,01810,"CEDAC data, cedac.org"
MARTENSEN VILLAGE,115 MARTENSEN ST,Quincy,MA,02169,"CEDAC data, cedac.org"
MASHPEE VILLAGE,1 WAMPANOAG DRIVE,Mashpee,MA,02649,"CEDAC data, cedac.org"
MASS MILLS I,150 MASSMILLS DR,Lowell,MA,01852,"CEDAC data, cedac.org"
MASS MILLS II,150 MASSMILLS DR,Lowell,MA,01852,"CEDAC data, cedac.org"
MATTAPAN HEIGHTS II,217 RIVER ST,Boston - Mattapan,MA,02126,"CEDAC data, cedac.org"
MATTAPAN HEIGHTS III,227 RIVER STREET,Boston - Mattapan,MA,02126,"CEDAC data, cedac.org"
MAVERICK LANDING I,31 Liverpool Street,Boston - East Boston,MA,02128,"CEDAC data, cedac.org"
MAVERICK LANDING II,31 Liverpool Street,Boston - East Boston,MA,02128,"CEDAC data, cedac.org"
MAVERICK LANDING III,31 Liverpool Street,Boston - East Boston,MA,02128,"CEDAC data, cedac.org"
MAVERICK LANDING IV,31 Liverpool Street,Boston - East Boston,MA,02128,"CEDAC data, cedac.org"
MEADOWBROOK,491 BRIDGE ROAD,Northampton,MA,01062,"CEDAC data, cedac.org"
MEADOWS AT BRICK KILN,82 BRICK KILN ROAD,Chelmsford,MA,01824,"CEDAC data, cedac.org"
MERCANTILE BLDG,111 ATLANTIC AVENUE,Boston - Waterfront,MA,02110,"CEDAC data, cedac.org"
METROPOLITAN RENTAL,1 NASSAU STREET,Boston - Chinatown,MA,02111,"CEDAC data, cedac.org"
MIDDLEBURY ARMS,89 E GROVE ST,Middleborough,MA,02346,"CEDAC data, cedac.org"
MILL HOUSE,75 WELLS ST,Greenfield,MA,01301,"CEDAC data, cedac.org"
MILL VALLEY ESTATES,420 RIVERGLADE DR,Amherst,MA,01002,"CEDAC data, cedac.org"
MILLFALLS APARTMENTS,51 OSGOOD STREET,Methuen,MA,01844,"CEDAC data, cedac.org"
MISSION MAIN I,42 SMITH STREET,Boston - Mission Hill,MA,02120,"CEDAC data, cedac.org"
MISSION TOWERS,180 WATER ST,Haverhill,MA,01830,"CEDAC data, cedac.org"
MOORINGS AT SQUANTUM I,400 E Squantum Street,Quincy,MA,02171,"CEDAC data, cedac.org"
MOORINGS AT SQUANTUM II,400 E Squantum St,Quincy,MA,02171,"CEDAC data, cedac.org"
MORGAN WOODS,1 12TH ST SOUTH /JERNEGAN AVE,Edgartown,MA,02539,"CEDAC data, cedac.org"
MUSEUM SQUARE,2 MUSEUM SQUARE,Lawrence,MA,01840,"CEDAC data, cedac.org"
MYSTIC VALLEY TWRS,3600 MYSTIC VALLEY PKWY,Medford,MA,02155,"CEDAC data, cedac.org"
NAZING COURT,224-236 SEAVER STREET,Boston - N Dorchester,MA,02121,"CEDAC data, cedac.org"
NEW GIRLS LATIN ACAD II,380 TALBOT AVENUE,Boston - Dorchester,MA,02124,"CEDAC data, cedac.org"
NEWCASTLE/SARANAC,599 COLUMBUS AVE,Boston - South End,MA,02118,"CEDAC data, cedac.org"
NO STOUGHTON VILLAGE,27 PAGE TER,Stoughton,MA,02072,"CEDAC data, cedac.org"
NORSTIN,51 NORFOLK ST,Cambridge,MA,02139,"CEDAC data, cedac.org"
NORTH VILLAGE AT WEBSTER,18A CRYSTAL ST,Webster,MA,01570,"CEDAC data, cedac.org"
NORTHEAST APTS,9 N EAST ST,Holyoke,MA,01040,"CEDAC data, cedac.org"
NORTHERN HEIGHTS,769 MAIN ST,Springfield,MA,01105,"CEDAC data, cedac.org"
NORTHRIDGE HOMES,81 NORTHRIDGE RD,Beverly,MA,01915,"CEDAC data, cedac.org"
OAK HILL,467 CRANE AVENUE,Pittsfield,MA,01201,"CEDAC data, cedac.org"
OAK TERRACE,888 WASHINGTON ST.,Boston - Chinatown,MA,02111,"CEDAC data, cedac.org"
OAK WOODS,A101 OAK WOODS,Bellingham,MA,02019,"CEDAC data, cedac.org"
OLDE DERBY VILLAGE,4 OLDE DERBY ROAD,Norwood,MA,02062,"CEDAC data, cedac.org"
ORCHARD HILL,220 ORCHARD HILL,Oxford,MA,01540,"CEDAC data, cedac.org"
ORCHARD HILL AT SUDBURY,761 BOSTON POST ROAD,Sudbury,MA,01776,"CEDAC data, cedac.org"
OXFORD HOUSE @ QUEENEY SQ,182 CHURCH ST,Clinton,MA,01510,"CEDAC data, cedac.org"
PARKER HILL APTS,170 PARKER HILL AVE,Boston - Mission Hill,MA,02120,"CEDAC data, cedac.org"
PARMELEE COURT,1776 WASHINGTON ST,Boston - South End,MA,02118,"CEDAC data, cedac.org"
PAUL REVERE COURT,190 NORTH ST,Boston - North End,MA,02113,"CEDAC data, cedac.org"
PELHAM I APARTMENTS,75 SECOND STREET,Framingham,MA,01702,"CEDAC data, cedac.org"
PEQUOT HIGHLANDS,12 FIRST STREET,Salem,MA,01970,"CEDAC data, cedac.org"
PERRY STREET,223 PERRY STREET,Lowell,MA,01852,"CEDAC data, cedac.org"
PHOENIX APARTMENTS,18 HAMILTON STREET,Holyoke,MA,01040,"CEDAC data, cedac.org"
PILOT GROVE HILL,11 WARREN ROAD,Stow,MA,01775,"CEDAC data, cedac.org"
PINE COMMONS,755 OAK STREET,Brockton,MA,02301,"CEDAC data, cedac.org"
PINE CREST,419 EAST RIVER ST,Orange,MA,01364,"CEDAC data, cedac.org"
PINE GARDENS,755 OAK STREET,Brockton,MA,02301,"CEDAC data, cedac.org"
PINE GROVE,240 HIGH STREET,Taunton,MA,02780,"CEDAC data, cedac.org"
PINE GROVE VILLAGE,1 JUDGES RD,Lexington,MA,02421,"CEDAC data, cedac.org"
PLANTATION TOWER,501 PLANTATION ST,Worcester,MA,01605,"CEDAC data, cedac.org"
PLEASANT PLAZA,36 DARTMOUTH STREET,Malden,MA,02148,"CEDAC data, cedac.org"
POND SIDE AT LITTLETON,147 KING ST,Littleton,MA,01460,"CEDAC data, cedac.org"
POWDERMILL VILLAGE,126 UNION ST,Westfield,MA,01085,"CEDAC data, cedac.org"
PRANG ESTATES,29 CENTRE ST.,Boston - Roxbury,MA,02119,"CEDAC data, cedac.org"
"PRESERVE, THE",1 PROVIDENCE HIGHWAY,Walpole,MA,02081,"CEDAC data, cedac.org"
PRINCETON AT BOSTON ROAD,495R BOSTON ROAD,Billerica,MA,01821,"CEDAC data, cedac.org"
PRINCETON COMMONS,1 TECHNOLOGY DRIVE,Chelmsford,MA,01863,"CEDAC data, cedac.org"
PRINCETON CROSSING APTS.,12 HERITAGE DRIVE,Salem,MA,01970,"CEDAC data, cedac.org"
PROVIDENCE HOUSE,180 COREY ROAD,Boston - Brighton,MA,02135,"CEDAC data, cedac.org"
PUTNAM SQUARE,2 MT AUBURN ST.,Cambridge,MA,02138,"CEDAC data, cedac.org"
QUINCY TOWER,5 OAK ST.,Boston - Chinatown,MA,02111,"CEDAC data, cedac.org"
REDWOOD TERRACE,451 BLACKBROOK DRIVE,Lowell,MA,01851,"CEDAC data, cedac.org"
REGENCY TOWERS I,800 PLEASANT STREET,New Bedford,MA,02740,"CEDAC data, cedac.org"
RESIDENCES @ WESTBORO STA,100 CHARLESTWN MD DR,Westborough,MA,01581,"CEDAC data, cedac.org"
RIVER PLACE TOWERS,1 RIVER PLACE,Lowell,MA,01852,"CEDAC data, cedac.org"
RIVER'S EDGE APARTMENTS,1 WATER ST,Haverhill,MA,01830,"CEDAC data, cedac.org"
RIVERBOAT VILLAGE,173 RIVERBOAT VILL.,South Hadley,MA,01075,"CEDAC data, cedac.org"
RIVERVIEW MEADOWS,1 MEADOW DRIVE,Raynham,MA,02767,"CEDAC data, cedac.org"
RIVERVIEW TOWERS,301 MILLIKEN BLVD,Fall River,MA,02721,"CEDAC data, cedac.org"
ROCKINGHAM GLEN,30 ROCKINGHAM AVE,Boston - West Roxbury,MA,02132,"CEDAC data, cedac.org"
ROCKLEDGE APTS,11 BARTLEY ST.,Wakefield,MA,01880,"CEDAC data, cedac.org"
ROLLING GREEN-AMHERST,1A ROLLING GREEN DR,Amherst,MA,01002,"CEDAC data, cedac.org"
ROLLING GREEN-MILFORD,1 ROLLING GREEN DR,Milford,MA,01757,"CEDAC data, cedac.org"
ROLLINS SQUARE APARTMENTS,2 ROLLINS STREET,Boston - South End,MA,02118,"CEDAC data, cedac.org"
ROLLINS SQUARE CONDO,1296 WASHINGTON ST,Boston - South End,MA,02118,"CEDAC data, cedac.org"
ROXBURY CORNERS,1776 WASHINGTON ST.,Boston - Roxbury,MA,02118,"CEDAC data, cedac.org"
S.S.C.R.II-BRIDGEWATER,1130 PLYMOUTH STREET,Bridgewater,MA,02324,"CEDAC data, cedac.org"
S.S.C.R.II-MATTAPOISETT,18 RANDALL ROAD,Mattapoisett,MA,02739,"CEDAC data, cedac.org"
S.S.C.R.II-STOUGHTON,145 LUCAS DRIVE,Stoughton,MA,02072,"CEDAC data, cedac.org"
SEMASS HOUSING I-RAYNHAM,36 THIELS WAY,Raynham,MA,02767,"CEDAC data, cedac.org"
SEMASS HOUSING I-SOMERSET,193 WESTHILL AVE.,Somerset,MA,02726,"CEDAC data, cedac.org"
SEMASS HOUSING I-TAUNTON,669 DIGHTON AVE.,Taunton,MA,02780,"CEDAC data, cedac.org"
SETON MANOR,200 COREY ROAD,Boston - Brighton,MA,02135,"CEDAC data, cedac.org"
SHIPS WATCH,4001 NORTH MAIN ST,Fall River,MA,02720,"CEDAC data, cedac.org"
SKYLINE DRIVE I,100 SKYLINE DRIVE,Braintree,MA,02184,"CEDAC data, cedac.org"
SKYLINE DRIVE II,100 SKYLINE DRIVE,Braintree,MA,02184,"CEDAC data, cedac.org"
SKYLINE DRIVE III,100 SKYLINE DRIVE,Braintree,MA,02184,"CEDAC data, cedac.org"
SMITH HOUSE,757 SHAWMUT AVE,Boston - Roxbury,MA,02119,"CEDAC data, cedac.org"
SOLEMAR APTS,26 SEA BREEZE DRIVE,Dartmouth,MA,02748,"CEDAC data, cedac.org"
SOUTH HOLYOKE HOUSING,16 CABOT STREET,Holyoke,MA,01040,"CEDAC data, cedac.org"
SOUTH SHORE-EASTON,1 ROLLINS ROAD,Easton,MA,02375,"CEDAC data, cedac.org"
SOUTH SHORE-PEMBROKE,54 BRICK KILN LN,Pembroke,MA,02359,"CEDAC data, cedac.org"
SOUTHWINDS,24 ROLLING GREEN DR,Fall River,MA,02720,"CEDAC data, cedac.org"
SPRING GATE / ROCKLAND PL,52 HANNAH WAY,Rockland,MA,02370,"CEDAC data, cedac.org"
SPRING HILL APTS,94 RIFLE STREET,Springfield,MA,01105,"CEDAC data, cedac.org"
ST STEPHEN'S TOWER,25 PLEASANT ST,Lynn,MA,01902,"CEDAC data, cedac.org"
STONE BROOK FARM,1 FARMS DRIVE,Burlington,MA,01803,"CEDAC data, cedac.org"
STRATTON HILL,161 W MOUNTAIN ST.,Worcester,MA,01606,"CEDAC data, cedac.org"
SUMMER HILL GLEN,121 SUMMER HILL GLEN,Maynard,MA,01754,"CEDAC data, cedac.org"
SUSAN S BAILIS ASST LIVNG,352 MASS AVE,Boston - Fenway,MA,02115,"CEDAC data, cedac.org"
TAUNTON WOODS,840 COUNTY ST,Taunton,MA,02780,"CEDAC data, cedac.org"
TAURUS APARTMENTS,120 HUMBOLDT AVE,Boston - Dorchester,MA,02121,"CEDAC data, cedac.org"
TDC III,400 MASS AVE,Boston - South End,MA,02115,"CEDAC data, cedac.org"
TENT CITY,434 MASSACHUSETTS AV,Boston - South End,MA,02118,"CEDAC data, cedac.org"
THE BROWNSTONES,115 APPLETON ST,Boston - South End,MA,02116,"CEDAC data, cedac.org"
THE CHESTER,521 MASSACHUSETTS AVE,Boston - South End,MA,02118,"CEDAC data, cedac.org"
THE MILLERY,99 RANTOUL ST,Beverly,MA,01915,"CEDAC data, cedac.org"
THE ROYAL WORCESTER,45 GRAND ST,Worcester,MA,01610,"CEDAC data, cedac.org"
THE TANNERY,18 CROWNINSHIELD ST,Peabody,MA,01960,"CEDAC data, cedac.org"
THE VILLAGE AT BROOKLINE,72 PEARL ST,Brookline,MA,02445,"CEDAC data, cedac.org"
TRADITIONS OF DEDHAM,735 WASHINGTON ST,Dedham,MA,02026,"CEDAC data, cedac.org"
TREEHOUSE EASTHAMPTON,212 PARK STREET,Easthampton,MA,01027,"CEDAC data, cedac.org"
TRINITY TERRACE,12 Trinity Terrace,Boston - Dorchester,MA,02121,"CEDAC data, cedac.org"
UNITED FRONT HOMES,285 ASH STREET,New Bedford,MA,02740,"CEDAC data, cedac.org"
UNQUITY HOUSE,30 CURTIS ROAD,Milton,MA,02186,"CEDAC data, cedac.org"
UPHAMS CORNER MARKET,612 COLUMBIA RD,Boston - Dorchester,MA,02125,"CEDAC data, cedac.org"
UPTON INN,135 MAIN STREET,Upton,MA,01568,"CEDAC data, cedac.org"
VAN NESS TERRACE,238 WARREN ST,Boston - Roxbury,MA,02119,"CEDAC data, cedac.org"
VERDEAN GARDENS,99 ACUSHNET AVE,New Bedford,MA,02740,"CEDAC data, cedac.org"
VILL @ HOSPITAL HILL II,1 Village Hill Road,Northampton,MA,01060,"CEDAC data, cedac.org"
VLG @ MANSFIELD DEPOT I,9 FRANCIS AVE,Mansfield,MA,02048,"CEDAC data, cedac.org"
VLG @ MANSFIELD DEPOT II,9 FRANCIS AVENUE,Mansfield,MA,02048,"CEDAC data, cedac.org"
WAKEFIELD PLACE,194 CENTRAL STREET,Gardner,MA,01440,"CEDAC data, cedac.org"
WARREN HOUSE,1600 WASHINGTON ST,Newton,MA,02465,"CEDAC data, cedac.org"
WATERFORD PLACE,180 SHAWMUT AVE,Boston - South End,MA,02118,"CEDAC data, cedac.org"
WAVERLEY WOODS,10 Olmsted Drive,Belmont,MA,02478,"CEDAC data, cedac.org"
WEST STOUGHTON VILLAGE,11 KRISTEN DRIVE,Stoughton,MA,02072,"CEDAC data, cedac.org"
WESTWOOD GLEN,21 WESTWOOD GLEN RD,Westwood,MA,02090,"CEDAC data, cedac.org"
WHITEHALL ESTATE,790 FALMOUTH RD,Barnstable,MA,02601,"CEDAC data, cedac.org"
WHITNEY CARRIAGE PARK,124 WATER ST,Leominster,MA,01453,"CEDAC data, cedac.org"
WILKINS GLEN,909 WILKINS GLEN RD,Medfield,MA,02052,"CEDAC data, cedac.org"
WOLLASTON MANOR,91 CLAY STREET,Quincy,MA,02170,"CEDAC data, cedac.org"
WOODLAND @ ABINGTON STA,9 WOODLANDS WAY,Abington,MA,02351,"CEDAC data, cedac.org"
YEE REALTY,21 EDINBORO ST,Boston - Chinatown,MA,02111,"CEDAC data, cedac.org"
ZELMA LACEY HOUSE,9 WEST SCHOOL STREET,Boston - Charlestown,MA,02129,"CEDAC data, cedac.org"
