Name,Street,City,State,Zip,info
120 CENTRE COURT,120 CENTRE ST,Brookline,MA,02446,"CEDAC data, cedac.org"
ACADEMY HOMES I,1592 COLUMBUS AVENUE,Boston - Roxbury,MA,02119,"CEDAC data, cedac.org"
ACADEMY HOMES II,2918 Washington Street,Boston - Roxbury,MA,02119,"CEDAC data, cedac.org"
ACADEMY KNOLL,22 BROAD STREET,Marlborough,MA,01752,"CEDAC data, cedac.org"
ADAMS TEMPLETON APTS,445 ADAMS STREET,Boston - Dorchester,MA,02122,"CEDAC data, cedac.org"
ALGONQUIN HEIGHTS,1 ALGONQUIN TERRACE,Plymouth,MA,02360,"CEDAC data, cedac.org"
ALLEN PARK APTS. I,251 ALLEN PARK RD,Springfield,MA,01118,"CEDAC data, cedac.org"
ALLEN PARK APTS. II,251 ALLEN PARK RD,Springfield,MA,01118,"CEDAC data, cedac.org"
ANDERSON PARK,250 CAMBRIDGE ST,Boston - Beacon Hill,MA,02114,"CEDAC data, cedac.org"
ARLINGTON PARK,355 PARK STREET,Lawrence,MA,01841,"CEDAC data, cedac.org"
ARSENAL APTS,465 ARSENAL ST,Watertown,MA,02472,"CEDAC data, cedac.org"
ASHLAND COMMONS,101 PRESIDENTS ROW,Ashland,MA,01721,"CEDAC data, cedac.org"
B F FAULKNER TOWER,25 HIGHLAND AVE,Somerville,MA,02143,"CEDAC data, cedac.org"
BACK OF THE HILL,100 S HUNTINGTON AVE,Boston - Jamaica Plain,MA,02130,"CEDAC data, cedac.org"
BAY MEADOWS,100 BAY MEADOW RD,Springfield,MA,01109,"CEDAC data, cedac.org"
BEACHMONT APTS,154 BRADSTREET AVE,Revere,MA,02151,"CEDAC data, cedac.org"
BEACON HOUSE,15 MYRTLE ST,Boston - Beacon Hill,MA,02114,"CEDAC data, cedac.org"
BEDFORD TOWERS,231 MIDDLE STREET,New Bedford,MA,02740,"CEDAC data, cedac.org"
BELLINGHAM SQ APTS,28 WASHINGTON AVENUE,Chelsea,MA,02150,"CEDAC data, cedac.org"
BERGEN CIRCLE,15 GIRARD AVENUE,Springfield,MA,01109,"CEDAC data, cedac.org"
BET SHALOM I,475 CHANDLER STREET,Worcester,MA,01602,"CEDAC data, cedac.org"
BINNALL HOUSE,125 CONNORS ST,Gardner,MA,01440,"CEDAC data, cedac.org"
BIXBY-BROCKTON APARTMENTS,103 MAIN STREET,Brockton,MA,02301,"CEDAC data, cedac.org"
BIXBY-BROCKTON APARTMENTS,103 MAIN STREET,Brockton,MA,02301,"CEDAC data, cedac.org"
BLACKSTONE,33 BLOSSOM STREET,Boston - West End,MA,02114,"CEDAC data, cedac.org"
BLAKE ESTATES,1344 HYDE PARK AVE,Boston - Hyde Park,MA,02136,"CEDAC data, cedac.org"
BLAKE ESTATES II,1344 HYDE PARK AVE,Boston - Hyde Park,MA,02136,"CEDAC data, cedac.org"
BLUE ELM UNITED ESTATES,260 SEAVER STREET,Boston - Dorchester,MA,02121,"CEDAC data, cedac.org"
BLUE ELM UNITED ESTATES,260 SEAVER STREET,Boston - Dorchester,MA,02121,"CEDAC data, cedac.org"
BORDEN ST HSG,111 BORDEN ST,Fall River,MA,02721,"CEDAC data, cedac.org"
BOWDOIN APARTMENTS,18-2 BOWDOIN STREET,Malden,MA,02148,"CEDAC data, cedac.org"
BRANDY HILL,12 STATE STREET,Wareham,MA,02538,"CEDAC data, cedac.org"
BRIDLE PATH APTS,164 BITTERSWEET LANE,Randolph,MA,02368,"CEDAC data, cedac.org"
BRISTON ARMS,237 GARDEN STREET,Cambridge,MA,02138,"CEDAC data, cedac.org"
BROADWAY GLEN,855 BROADWAY,Chelsea,MA,02150,"CEDAC data, cedac.org"
BROCKTON COMMONS,55 CITY HALL PLAZA,Brockton,MA,02301,"CEDAC data, cedac.org"
BURROUGHS BLDG,11 SCHOOL ST,Chelsea,MA,02150,"CEDAC data, cedac.org"
CAMFIELD GARDENS,85 LENOX ST,Boston - Roxbury,MA,02118,"CEDAC data, cedac.org"
CANTERBURY TOWER,6 WACHUSETT STREET,Worcester,MA,01609,"CEDAC data, cedac.org"
CANTON VILLAGE,15 WILL DRIVE,Canton,MA,02021,"CEDAC data, cedac.org"
CAPITOL SQUARE,379 NORTH STREET,Pittsfield,MA,01201,"CEDAC data, cedac.org"
CASA MARIA,130 ENDICOTT ST,Boston - North End,MA,02113,"CEDAC data, cedac.org"
CASAS BORINQUEN,328 SHAWMUT,Boston - South End,MA,02118,"CEDAC data, cedac.org"
CAST II,49 COLUMBIA ST,Cambridge,MA,02139,"CEDAC data, cedac.org"
CASTLE SQUARE,484 TREMONT ST,Boston - South End,MA,02116,"CEDAC data, cedac.org"
CASTLE SQUARE,484 TREMONT ST,Boston - South End,MA,02116,"CEDAC data, cedac.org"
CEDAR GLEN,2 ELDERBERRY LANE,Reading,MA,01867,"CEDAC data, cedac.org"
CEFALO MEM COMPLEX,245 W WYOMING AVE,Melrose,MA,02176,"CEDAC data, cedac.org"
CENTRAL ANNEX,99 2ND ST,Pittsfield,MA,01201,"CEDAC data, cedac.org"
CHARLES NEWTOWN COOP,10 OLD IRONSIDES WAY,Boston - Charlestown,MA,02129,"CEDAC data, cedac.org"
CHATHAM WEST II,202 CHATHAM WEST DR,Brockton,MA,02301,"CEDAC data, cedac.org"
CHELSEA SQUARE,272 BROADWAY,Chelsea,MA,02150,"CEDAC data, cedac.org"
CHELSEA VILLAGE,5 ADMIRALS WAY,Chelsea,MA,02150,"CEDAC data, cedac.org"
CHESTNUT GARDENS APTS,301 ESSEX ST,Lynn,MA,01902,"CEDAC data, cedac.org"
CHESTNUT GLEN,585 CHESTNUT ST,Abington,MA,02351,"CEDAC data, cedac.org"
CITY SQUARE ELDERLY HSNG,42 PARK STREET,Boston - Charlestown,MA,02129,"CEDAC data, cedac.org"
CLARK HOUSE,22 LESSEY ST,Amherst,MA,01002,"CEDAC data, cedac.org"
COLLINS NONPROFIT ADMIRAL,150 CAPTAINS ROW,Chelsea,MA,02150,"CEDAC data, cedac.org"
CONCORD ST. ELDER HOUSING,1640 WASHINGTON ST.,Boston - South End,MA,02118,"CEDAC data, cedac.org"
COTTAGE-BROOK,622 DUDLEY ST,Boston - Dorchester,MA,02125,"CEDAC data, cedac.org"
COTTON MILL,17 DOUGLAS ROAD,Northbridge,MA,01588,"CEDAC data, cedac.org"
COUNCIL TOWER,2875 WASHINGTON ST,Boston - Roxbury,MA,02119,"CEDAC data, cedac.org"
COVENANT HOUSE I & II,30 WASHINGTON ST,Boston - Brighton,MA,02135,"CEDAC data, cedac.org"
COVENANT HOUSE I & II,30 WASHINGTON ST,Boston - Brighton,MA,02135,"CEDAC data, cedac.org"
COX BUILDING,1 JOHN ELIOT SQ,Boston - Roxbury,MA,02119,"CEDAC data, cedac.org"
CROMWELL COURT,68 BARNSTABLE ROAD,Barnstable,MA,02601,"CEDAC data, cedac.org"
CUSHING RESIDENCE INC.,1 ELMWOOD FARM DR,Hanover,MA,02339,"CEDAC data, cedac.org"
DAVIS COMMONS,165 CARL AVE,Brockton,MA,02302,"CEDAC data, cedac.org"
DAVIS COMMONS,165 CARL AVE,Brockton,MA,02302,"CEDAC data, cedac.org"
DIMOCK-BRAGDON APT,1841 COLUMBUS,Boston - Roxbury,MA,02119,"CEDAC data, cedac.org"
DOM POLSKI,136 Cabot St,Chicopee,MA,01013,"CEDAC data, cedac.org"
DORCHESTER HSG,10 ELLET STREET,Boston - Dorchester,MA,02122,"CEDAC data, cedac.org"
EBENEZER HOMES,160 W SPRINGFIELD ST,Boston - South End,MA,02118,"CEDAC data, cedac.org"
EDGEWATER APTS,101 LOWELL ST,Springfield,MA,01107,"CEDAC data, cedac.org"
EDISON GREEN,915 DORCHESTER AVE,Boston - Dorchester,MA,02125,"CEDAC data, cedac.org"
EDMANDS HOUSE,15 EDMANDS ROAD,Framingham,MA,01701,"CEDAC data, cedac.org"
ESSEX TOWERS,18 FRANKLIN STREET,Lawrence,MA,01840,"CEDAC data, cedac.org"
EXCHANGE BLDG,227 BROADWAY,Chelsea,MA,02150,"CEDAC data, cedac.org"
FABENS BLDG,312 UNION ST,Lynn,MA,01901,"CEDAC data, cedac.org"
FAIRHAVEN VLGE,330 MAIN ST,Fairhaven,MA,02719,"CEDAC data, cedac.org"
FAIRWEATHER APARTMENTS,40R HIGHLAND AVE,Salem,MA,01970,"CEDAC data, cedac.org"
FAIRWEATHER APARTMENTS,40R HIGHLAND AVE,Salem,MA,01970,"CEDAC data, cedac.org"
FALLS VIEW APTS,132 E MAIN ST,Chicopee,MA,01020,"CEDAC data, cedac.org"
FARNSWORTH HOUSE,90 SOUTH ST,Boston - Jamaica Plain,MA,02130,"CEDAC data, cedac.org"
FIELDSTONE APARTMENTS,907 BLUE HILL AVE.,Boston - Dorchester,MA,02124,"CEDAC data, cedac.org"
FITCHBURG GREEN,350 WATER STREET,Fitchburg,MA,01420,"CEDAC data, cedac.org"
FRAMINGHAM GREEN,136 MAYNARD RD,Framingham,MA,01701,"CEDAC data, cedac.org"
FRANKLIN HIGHLANDS,278 HUMBOLDT AVE.,Boston - N Dorchester,MA,02121,"CEDAC data, cedac.org"
FRANKLIN PARK,132 SEAVER ST,Boston - N Dorchester,MA,02121,"CEDAC data, cedac.org"
FRANKLIN SQ HOUSE,11 E NEWTON ST,Boston - South End,MA,02118,"CEDAC data, cedac.org"
FRIENDLY GARDEN CO-OP APT,235 REVERE ST,Revere,MA,02151,"CEDAC data, cedac.org"
GARDNER TERRACE I & II,46 PINE STREET,Attleboro,MA,02703,"CEDAC data, cedac.org"
GEN SHEPARD HSG,25 THOMAS STREET,Westfield,MA,01085,"CEDAC data, cedac.org"
GENEVA APARTMENTS,211 GENEVA AVE.,Boston - N Dorchester,MA,02121,"CEDAC data, cedac.org"
GLEN GROVE,50 GROVE ST,Wellesley,MA,02482,"CEDAC data, cedac.org"
GOSNOLD GROVE,362 MAIN ST,Falmouth,MA,02540,"CEDAC data, cedac.org"
GRANITE:URBAN EDGE,11 WALDREN ROAD,Boston - Roxbury,MA,02119,"CEDAC data, cedac.org"
GRANITE:WASH-COL II,95B WASHINGTON PARK,Boston - Roxbury,MA,02119,"CEDAC data, cedac.org"
GRANT MANOR,1812 WASHINGTON STREET,Boston - Lower Roxbury,MA,02118,"CEDAC data, cedac.org"
GREENHILL TOWERS,27 MT VERNON ST,Worcester,MA,01605,"CEDAC data, cedac.org"
GROVE HALL APARTMENTS,484 BLUE HILL AVE.,Boston - Dorchester,MA,02121,"CEDAC data, cedac.org"
HADLEY WEST,515 HADLEY WEST DR,Haverhill,MA,01832,"CEDAC data, cedac.org"
HANCOCK COURT,25 SCHOOL ST,Quincy,MA,02169,"CEDAC data, cedac.org"
HANOVER LEGION ELDER APTS,70 LEGION DR,Hanover,MA,02339,"CEDAC data, cedac.org"
HARBOR LOFT APTS,7 LIBERTY SQ,Lynn,MA,01901,"CEDAC data, cedac.org"
HARBOR POINT,320 MT VERNON ST,Boston - Dorchester,MA,02125,"CEDAC data, cedac.org"
HEMENWAY APTS,491 HUNTINGTON AVENUE,Boston - Fenway,MA,02115,"CEDAC data, cedac.org"
HERITAGE GREEN,629 MAIN ST,Sturbridge,MA,01518,"CEDAC data, cedac.org"
HERITAGE HOUSE,32 LOW STREET,Newburyport,MA,01950,"CEDAC data, cedac.org"
HOPE GARDENS,847 PARK STREET,Attleboro,MA,02703,"CEDAC data, cedac.org"
HOTEL RAYMOND,35 DAY STREET,Fitchburg,MA,01420,"CEDAC data, cedac.org"
HOTEL WORTHY,193 WORTHINGTON ST,Springfield,MA,01103,"CEDAC data, cedac.org"
INTERVALE-MAGNOL/BSTN BAY,99 INTERVALE ST,Boston - Dorchester,MA,02121,"CEDAC data, cedac.org"
ISLAND CREEK EAST - I,30 TREMONT ST,Duxbury,MA,02332,"CEDAC data, cedac.org"
JAMES STEAM MILL,1 CHARLES ST,Newburyport,MA,01950,"CEDAC data, cedac.org"
JOSEPH'S HOUSE,279 DANIELS ST,Fitchburg,MA,01420,"CEDAC data, cedac.org"
KENMORE ABBEY,490 COMMONWEALTH AVENUE,Boston - Kenmore,MA,02215,"CEDAC data, cedac.org"
KENT VILLAGE,65 NORTH RIVER ROAD,Scituate,MA,02066,"CEDAC data, cedac.org"
KING VILLAGE APARTMENTS,319 KEMPTON STREET,New Bedford,MA,02740,"CEDAC data, cedac.org"
KINGS BEACH TOWER,130 EASTERN AVE,Lynn,MA,01902,"CEDAC data, cedac.org"
LAFAYETTE PLACE,138 ST JOSEPH ST,Fall River,MA,02723,"CEDAC data, cedac.org"
LAMPLIGHTER VILL,1 STAGECOACH ROAD,Canton,MA,02021,"CEDAC data, cedac.org"
LEISURE TOWER,10 FARRAR STREET,Lynn,MA,01902,"CEDAC data, cedac.org"
LIBERTY PINES,56 CREEK ST,Wrentham,MA,02093,"CEDAC data, cedac.org"
LINCOLN SCHOOL,86 CENTRAL ST,Hingham,MA,02043,"CEDAC data, cedac.org"
LOGAN PARK,193 GROVE ST,Braintree,MA,02184,"CEDAC data, cedac.org"
LONGFELLOW GLEN,655 BOSTON POST ROAD,Sudbury,MA,01776,"CEDAC data, cedac.org"
MACHADO HOUSE @ PETER'S,11 LAKE ST,Hudson,MA,01749,"CEDAC data, cedac.org"
MAJESTIC APTS,445 MERRIMACK ST,Lowell,MA,01854,"CEDAC data, cedac.org"
MAPLE COMMONS,60 SCHOOL ST.,Springfield,MA,01105,"CEDAC data, cedac.org"
MARBLE ST. APTS,11 MARBLE ST,Worcester,MA,01603,"CEDAC data, cedac.org"
MARCUS GARVEY GDNS,44 JOHN ELIOT SQUARE,Boston - Roxbury,MA,02119,"CEDAC data, cedac.org"
MARKET MILL,246 MARKET ST,Lowell,MA,01852,"CEDAC data, cedac.org"
MARY COLBERT APARTMENTS,20 DEVENS ST,Boston - Charlestown,MA,02129,"CEDAC data, cedac.org"
MASON PLACE,80 MASON ST,Boston - Downtown,MA,02111,"CEDAC data, cedac.org"
MASS PIKE TOWERS,336 TREMONT STREET,Boston - Chinatown,MA,02116,"CEDAC data, cedac.org"
MCKINLEY HOUSE,38 ASINOF AVE,Chicopee,MA,01013,"CEDAC data, cedac.org"
MELVILLE TOWERS,850 PLEASANT ST,New Bedford,MA,02740,"CEDAC data, cedac.org"
MERRIMACK VALLEY APTS,20 CALUMET RD,Methuen,MA,01844,"CEDAC data, cedac.org"
MILL POND APARTMENTS,50 MILL ROAD,Littleton,MA,01460,"CEDAC data, cedac.org"
MILL POND APTS (TAUNTON),30 WASHINGTON ST,Taunton,MA,02780,"CEDAC data, cedac.org"
MILLHAUS AT UPTON,134 MAIN STREET,Upton,MA,01568,"CEDAC data, cedac.org"
MISSION PARK,835 HUNTINGTON AVE,Boston - Mission Hill,MA,02115,"CEDAC data, cedac.org"
MOHAWK FOREST,201 MOHAWK FOREST BLVD,North Adams,MA,01247,"CEDAC data, cedac.org"
MT CARMEL APARTMENTS,50 SHREWSBURY ST,Worcester,MA,01604,"CEDAC data, cedac.org"
MT PLEASANT APTS -BOSTON,2 WAVERLY ST,Boston - Roxbury,MA,02119,"CEDAC data, cedac.org"
MT PLEASANT APTS-SOMERVL,70 PERKINS ST,Somerville,MA,02145,"CEDAC data, cedac.org"
MTN VIEW TERRACE,27 MOUNTAINVIEW DR,Stoneham,MA,02180,"CEDAC data, cedac.org"
NEHOIDEN GLEN,1035 CENTRAL AVE,Needham,MA,02492,"CEDAC data, cedac.org"
NEPTUNE TOWERS,130 NEPTUNE BLVD,Lynn,MA,01905,"CEDAC data, cedac.org"
NEPTUNE TOWERS,130 NEPTUNE BLVD,Lynn,MA,01905,"CEDAC data, cedac.org"
NEW PORT ANTONIO APTS.,8 IRWIN AVENUE,Boston - Roxbury,MA,02119,"CEDAC data, cedac.org"
NOONAN GLEN,75 HEMINGWAY STREET,Winchester,MA,01890,"CEDAC data, cedac.org"
NOR-AL,339 TALBOT AVE,Boston - Dorchester,MA,02124,"CEDAC data, cedac.org"
NORFIELD/HOPE BAY,5 NORWELL ST,Boston - N Dorchester,MA,02121,"CEDAC data, cedac.org"
NORTON GLEN,1 NORTON GLEN RD,Norton,MA,02766,"CEDAC data, cedac.org"
NORWAY HOUSING,78 PETERBOROUGH ST,Boston - Fenway,MA,02215,"CEDAC data, cedac.org"
OCEAN SHORES,50 LYNNWAY,Lynn,MA,01902,"CEDAC data, cedac.org"
OLD MILL GLEN,438 DAWN RD,Maynard,MA,01754,"CEDAC data, cedac.org"
OXFORD PLACE,15 OXFORD ST,Boston - Chinatown,MA,02111,"CEDAC data, cedac.org"
PALMER GREEN EST,1 BEACON DRIVE,Palmer,MA,01069,"CEDAC data, cedac.org"
PARK GARDENS (METHUEN),10 BURNHAM RD,Methuen,MA,01844,"CEDAC data, cedac.org"
PEIRCE HOUSE,88 CHESTNUT ST,Newton,MA,02465,"CEDAC data, cedac.org"
PEQUOIG HOUSE,416 MAIN ST,Athol,MA,01331,"CEDAC data, cedac.org"
PETER SANBORN PLACE,50 BAY STATE ROAD,Reading,MA,01867,"CEDAC data, cedac.org"
PHEASANT HILL VLGE,25 PHEASANT HILL,Agawam,MA,01030,"CEDAC data, cedac.org"
PINE CREST II,383 E RIVER ST,Orange,MA,01364,"CEDAC data, cedac.org"
PLUMLEY VILLAGE EAST,15 LAUREL ST,Worcester,MA,01608,"CEDAC data, cedac.org"
PLUMLEY VILLAGE EAST,15 LAUREL ST,Worcester,MA,01608,"CEDAC data, cedac.org"
POWER TOWN,152 AVENUE A,Gill,MA,01376,"CEDAC data, cedac.org"
PRESCOTT MILL,24 WATER STREET,Clinton,MA,01510,"CEDAC data, cedac.org"
PRESIDENTIAL GARDENS,1 EVERGREEN DR,Haverhill,MA,01835,"CEDAC data, cedac.org"
PROJECT 3,149 WORCESTER,Boston - South End,MA,02118,"CEDAC data, cedac.org"
PROSPECT HEIGHTS,41 CHESTNUT ST,Holyoke,MA,01040,"CEDAC data, cedac.org"
PULASKI HEIGHTS,76 MAPLE ST,Holyoke,MA,01040,"CEDAC data, cedac.org"
PULASKI HEIGHTS,76 MAPLE ST,Holyoke,MA,01040,"CEDAC data, cedac.org"
PYNCHON TERRACE I,202 PLAINFIELD ST,Springfield,MA,01107,"CEDAC data, cedac.org"
QUAKER MEADOWS,65 MEMORIAL PARK,Lynn,MA,01902,"CEDAC data, cedac.org"
QUEEN ANNES GATE 1,148 COLONELS LANE,Weymouth,MA,02189,"CEDAC data, cedac.org"
RAP-UP I,31 MARCELLA STREET,Boston - Roxbury,MA,02119,"CEDAC data, cedac.org"
RITA HALL,490 HAMPSHIRE ST,Lawrence,MA,01841,"CEDAC data, cedac.org"
RIVER RUN APTS,600 MAIN STREET,Dalton,MA,01226,"CEDAC data, cedac.org"
RIVERSIDE TOWERS,99 RIVERSIDE AVENUE,Medford,MA,02155,"CEDAC data, cedac.org"
RIVERSIDE VILLAGE,1 STATE STREET,Leominster,MA,01453,"CEDAC data, cedac.org"
RIVERVIEW HOMES,341 WEST STREET,Pittsfield,MA,01201,"CEDAC data, cedac.org"
ROBINSON MILL,59 GREEN STREET,Malden,MA,02148,"CEDAC data, cedac.org"
ROCK HARBOR VLGE,9 MAIN ST,Orleans,MA,02653,"CEDAC data, cedac.org"
ROCKDALE COMMON,46 PLANTATION ST,Northbridge,MA,01534,"CEDAC data, cedac.org"
ROGERS HALL,196 ROGERS ST,Lowell,MA,01852,"CEDAC data, cedac.org"
ROLFE HOUSE,7 WILLOW ST,Lynn,MA,01901,"CEDAC data, cedac.org"
ROSLINDALE SCHOOL,120 POPLAR ST,Boston - Roslindale,MA,02131,"CEDAC data, cedac.org"
ROXSE HOMES,1050 TREMONT ST.,Boston - Roxbury,MA,02120,"CEDAC data, cedac.org"
SAINT BOTOLPH,150 ST BOTOLPH,Boston - South End,MA,02115,"CEDAC data, cedac.org"
SAUGUS COMMONS,63 NEWHALL AVE,Saugus,MA,01906,"CEDAC data, cedac.org"
SAVIN HILL APTS,130 AUCKLAND ST,Boston - Dorchester,MA,02125,"CEDAC data, cedac.org"
SEABURY HEIGHTS,240 BELMONT ST,Worcester,MA,01604,"CEDAC data, cedac.org"
SHAWME HEIGHTS APTS,5 LEVERIDGE LN,Sandwich,MA,02563,"CEDAC data, cedac.org"
SHERWOOD VILLAGE,145 MILL STREET,Natick,MA,01760,"CEDAC data, cedac.org"
SHORE PLAZA EAST,730 BORDER STREET,Boston - East Boston,MA,02128,"CEDAC data, cedac.org"
SILSBEE TOWER,57 SILSBEE ST,Lynn,MA,01901,"CEDAC data, cedac.org"
SIMON C FIREMAN COMMUNITY,640 N MAIN ST,Randolph,MA,02368,"CEDAC data, cedac.org"
SOLEMAR II,26 SEA BREEZE DR,Dartmouth,MA,02748,"CEDAC data, cedac.org"
"SONOMA,MAPLE,SCHUYLER",1 MAPLE CT,Boston - Dorchester,MA,02121,"CEDAC data, cedac.org"
SOUTH COVE APARTMENTS,230 STUART ST,Boston - South End,MA,02116,"CEDAC data, cedac.org"
SOUTH END APARTMENTS,42 CUNARD STREET,Boston - Lower Roxbury,MA,02120,"CEDAC data, cedac.org"
SOUTH END COOP. HOUSING,163 W SPRINGFIELD ST,Boston - South End,MA,02118,"CEDAC data, cedac.org"
SOUTH END TENANTS HSG I,106 W CONCORD ST,Boston - South End,MA,02118,"CEDAC data, cedac.org"
SOUTH END TENANTS HSG II,139 PEMBROKE ST,Boston - South End,MA,02118,"CEDAC data, cedac.org"
ST FRAN OF ASSISI @ BTREE,53 INDEPENDENCE AVE,Braintree,MA,02184,"CEDAC data, cedac.org"
ST MARY'S PLAZA,30 PLEASANT ST,Lynn,MA,01902,"CEDAC data, cedac.org"
ST MATHIEUS SCHOOL,221 WELLINGTON ST,Fall River,MA,02720,"CEDAC data, cedac.org"
ST MICHAEL'S HOUSE,71 STATE ST,Northampton,MA,01060,"CEDAC data, cedac.org"
STEARNS APARTMENTS,10 TEMPLE PLACE,Boston - Downtown,MA,02111,"CEDAC data, cedac.org"
STONY BROOK COURT,51 HIXSON FARM RD,Sharon,MA,02067,"CEDAC data, cedac.org"
SUMNER ST HSG FOR THE ELD,195 SUMNER STREET,Newton,MA,02459,"CEDAC data, cedac.org"
SWAN POND VILLAGE,1100 ALEWIFE CIRCLE,Yarmouth,MA,02664,"CEDAC data, cedac.org"
SYMPHONY PLAZA EAST,334 MASS AVE,Boston - Fenway,MA,02115,"CEDAC data, cedac.org"
SYMPHONY PLAZA WEST,333 MASS AVE,Boston - Fenway,MA,02115,"CEDAC data, cedac.org"
TAB I (713 DUDLEY ST),3 MONADNOCK ST,Boston - Dorchester,MA,02125,"CEDAC data, cedac.org"
TABER MILL,217 DEANE ST,New Bedford,MA,02746,"CEDAC data, cedac.org"
TAUNTON GREEN,31 SCHOOL ST,Taunton,MA,02780,"CEDAC data, cedac.org"
TAURUS AT FTN HILL,16 AKRON ST,Boston - Roxbury,MA,02119,"CEDAC data, cedac.org"
TECUMSEH MILL,164 HARTWELL ST,Fall River,MA,02721,"CEDAC data, cedac.org"
THANE STREET APTS,22 THANE ST,Boston - Dorchester,MA,02124,"CEDAC data, cedac.org"
THE ACADEMY,102 SO MAIN STREET,Fall River,MA,02721,"CEDAC data, cedac.org"
THE CAR BARN,1959 PURCHASE ST,New Bedford,MA,02740,"CEDAC data, cedac.org"
THE CLOSE BUILDING,243 BROADWAY,Cambridge,MA,02139,"CEDAC data, cedac.org"
THEROCH I,129 COLUMBIA ROAD,Boston - N Dorchester,MA,02121,"CEDAC data, cedac.org"
TOWN BROOK HOUSE,45 BRACKETT ST,Quincy,MA,02169,"CEDAC data, cedac.org"
TRINITY VILLAGE,283 GROVE STREET,Brockton,MA,02302,"CEDAC data, cedac.org"
UPHAM'S CORNER,481 COLUMBIA ROAD,Boston - Dorchester,MA,02125,"CEDAC data, cedac.org"
UPLAND GDNS (AUTUMN WDS),7 UPLAND GARDENS DR,Worcester,MA,01607,"CEDAC data, cedac.org"
VALEBROOK,11 SUMMER ST,Lawrence,MA,01840,"CEDAC data, cedac.org"
VAN DER HAYDEN,774 STATE ST,Springfield,MA,01109,"CEDAC data, cedac.org"
VBC APTS (GRANITE 1B),495 BLUE HILL AV,Boston - Dorchester,MA,02121,"CEDAC data, cedac.org"
VICTORIA APARTMENTS,65 WEST DEDHAM ST,Boston - South End,MA,02118,"CEDAC data, cedac.org"
VICTORY GDNS PLAZA,54 ORLEANS STREET,Boston - East Boston,MA,02128,"CEDAC data, cedac.org"
VILLAGE PARK,1 VILLAGE PARK RD,Amherst,MA,01002,"CEDAC data, cedac.org"
VIVIENDAS APARTMENTS,640 TREMONT ST,Boston - South End,MA,02118,"CEDAC data, cedac.org"
WAIT STREET,768 HUNTINGTON AVENUE,Boston - Fenway,MA,02115,"CEDAC data, cedac.org"
WALDEN SQUARE APARTMENTS,21 WALDEN SQUARE RD,Cambridge,MA,02140,"CEDAC data, cedac.org"
WALLINGFORD HSG,28 WALLINGFORD RD,Boston - Brighton,MA,02135,"CEDAC data, cedac.org"
WARDMAN APARTMENTS,3 WARDMAN ROAD,Boston - Roxbury,MA,02119,"CEDAC data, cedac.org"
WASHINGTON HEIGHTS-DEMO,195 HUMBOLDT AVE.,Boston - Dorchester,MA,02121,"CEDAC data, cedac.org"
WASHINGTON HOUSE,40 VERNON ST,Taunton,MA,02780,"CEDAC data, cedac.org"
WATERVIEW APTS,1350 COLUMBIA RD,Boston - South Boston,MA,02127,"CEDAC data, cedac.org"
WATERWAY APTS,106 WATER STREET,Leominster,MA,01453,"CEDAC data, cedac.org"
WEEKS SCHOOL APTS,7 HEREWARD ROAD,Newton,MA,02459,"CEDAC data, cedac.org"
WELLINGTON COMMUNITY,714 MAIN STREET,Worcester,MA,01610,"CEDAC data, cedac.org"
WEST END PLACE,150 STANIFORD STREET,Boston - West End,MA,02114,"CEDAC data, cedac.org"
WESTBOROUGH VILL,12 BEACH ST,Westborough,MA,01581,"CEDAC data, cedac.org"
WESTLAND AVENUE APTS,65 WESTLAND AVE,Boston - Fenway,MA,02115,"CEDAC data, cedac.org"
WHITTIER TERRACE,86 AUSTIN ST,Worcester,MA,01609,"CEDAC data, cedac.org"
WILBRAHAM COMMONS,269 STONY HILL RD,Wilbraham,MA,01095,"CEDAC data, cedac.org"
WILLOW APARTMENTS,19 WILLOW ST,Lynn,MA,01901,"CEDAC data, cedac.org"
WILSON GARDENS,10 WILSON TERRACE,Lynn,MA,01902,"CEDAC data, cedac.org"
WINSLOW VILLAGE II,1554 OCEAN STREET,Marshfield,MA,02050,"CEDAC data, cedac.org"
WOOD RIDGE HOMES,10 WOODRIDGE DR,North Andover,MA,01845,"CEDAC data, cedac.org"
WOODBOURNE APARTMENTS,6 SOUTHBOURNE RD,Boston - Jamaica Plain,MA,02130,"CEDAC data, cedac.org"
WOODBURY BUILDING,201 SUMNER STREET,Boston - East Boston,MA,02128,"CEDAC data, cedac.org"
WOODLEDGE/MORRANT BAY,99 WOODLEDGE ST,Boston - Dorchester,MA,02125,"CEDAC data, cedac.org"
WOODS AT WAREHAM,36 SWIFTS BEACH RD,Wareham,MA,02571,"CEDAC data, cedac.org"
